{"version": 0.6, "generator": "Overpass API 0.7.62.1 084b4234", "osm3s": {"timestamp_osm_base": "2024-09-03T04:43:23Z", "copyright": "The data included in this document is from www.openstreetmap.org. The data is made available under ODbL."}, "elements": [{"type": "node", "id": 703163666, "lat": -37.2131025, "lon": 145.4277383}, {"type": "node", "id": 703163667, "lat": -37.2123971, "lon": 145.4280603}, {"type": "node", "id": 703163668, "lat": -37.2125764, "lon": 145.4286794}, {"type": "node", "id": 703163669, "lat": -37.2132818, "lon": 145.4283574}, {"type": "node", "id": 1703618937, "lat": -37.2145233, "lon": 145.4094815}, {"type": "node", "id": 1703618939, "lat": -37.2147625, "lon": 145.4063675}, {"type": "node", "id": 1703618941, "lat": -37.2165169, "lon": 145.409448}, {"type": "node", "id": 1703618943, "lat": -37.2165311, "lon": 145.4063514}, {"type": "node", "id": 2806006513, "lat": -37.2140596, "lon": 145.4240477}, {"type": "node", "id": 2806006514, "lat": -37.2134743, "lon": 145.4253111}, {"type": "node", "id": 2806006515, "lat": -37.2150253, "lon": 145.4264706}, {"type": "node", "id": 2806006516, "lat": -37.2156339, "lon": 145.4251582}, {"type": "node", "id": 3058404632, "lat": -37.3172148, "lon": 145.2900355}, {"type": "node", "id": 3058412933, "lat": -37.3167151, "lon": 145.290134}, {"type": "node", "id": 3058412934, "lat": -37.3164464, "lon": 145.2920115}, {"type": "node", "id": 4270694926, "lat": -37.4823293, "lon": 145.2585643}, {"type": "node", "id": 4270694927, "lat": -37.481048, "lon": 145.2588218}, {"type": "node", "id": 4270694928, "lat": -37.4811076, "lon": 145.2603936}, {"type": "node", "id": 4270694929, "lat": -37.4824868, "lon": 145.2601039}, {"type": "node", "id": 7915307349, "lat": -37.4811586, "lon": 145.258795}, {"type": "node", "id": 9057595562, "lat": -37.0972273, "lon": 145.1010087}, {"type": "node", "id": 9057595563, "lat": -37.0966401, "lon": 145.1012886}, {"type": "node", "id": 9057595564, "lat": -37.0961985, "lon": 145.1002348}, {"type": "node", "id": 9057595565, "lat": -37.0966796, "lon": 145.0997427}, {"type": "node", "id": 9057595566, "lat": -37.0969641, "lon": 145.1004052}, {"type": "node", "id": 10187709001, "lat": -37.3169394, "lon": 145.2918792}, {"type": "node", "id": 10187728822, "lat": -37.2126852, "lon": 145.4296035}, {"type": "node", "id": 10187728823, "lat": -37.2128155, "lon": 145.4295096}, {"type": "node", "id": 10187728824, "lat": -37.2120849, "lon": 145.4291891}, {"type": "node", "id": 10187728825, "lat": -37.2118671, "lon": 145.4284286}, {"type": "node", "id": 10187728826, "lat": -37.2117752, "lon": 145.4278238}, {"type": "node", "id": 10187728827, "lat": -37.2118671, "lon": 145.4273544}, {"type": "node", "id": 10187728828, "lat": -37.2121843, "lon": 145.4272149}, {"type": "way", "id": 56019661, "nodes": [703163666, 703163667, 10187728828, 10187728827, 10187728826, 10187728825, 10187728824, 10187728822, 10187728823, 703163668, 703163669, 703163666], "tags": {"addr:housenumber": "23", "addr:street": "Station Street", "amenity": "school", "grades": "0-6", "isced:level": "1", "name": "Yea Primary School", "operator": "Victorian Department of Education", "operator:type": "public", "operator:wikidata": "Q5260272", "phone": "+61 3 5797 2724", "website": "https://yeaps.vic.edu.au/"}}, {"type": "way", "id": 158100582, "nodes": [1703618939, 1703618937, 1703618941, 1703618943, 1703618939], "tags": {"addr:housenumber": "67", "addr:street": "Racecource Road", "amenity": "school", "grades": "7-12", "isced:level": "2-3", "name": "Yea High School", "operator": "Victorian Department of Education", "operator:type": "public", "operator:wikidata": "Q5260272", "phone": "+61 3 5797 2207", "website": "https://www.yeahs.vic.edu.au/"}}, {"type": "way", "id": 275953276, "nodes": [2806006513, 2806006514, 2806006515, 2806006516, 2806006513], "tags": {"addr:housenumber": "5", "addr:postbox": "PO Box 100", "addr:street": "The Parade", "amenity": "school", "denomination": "catholic", "email": "principal@shyea.catholic.edu.au", "grades": "0-6", "isced:level": "1", "name": "Sacred Heart Primary School", "operator": "Melbourne Archdiocese Catholic Schools", "operator:short": "MACS", "operator:type": "religious", "operator:wikidata": "Q100769882", "phone": "+61 3 5797 2723", "religion": "christian", "website": "https://www.shyea.catholic.edu.au/"}}, {"type": "way", "id": 301738671, "nodes": [3058404632, 3058412933, 3058412934, 10187709001, 3058404632], "tags": {"addr:housenumber": "3377", "addr:street": "Whittlesea-Yea Road", "amenity": "school", "grades": "0-6", "isced:level": "1", "name": "Flowerdale Primary School", "operator": "Victorian Department of Education", "operator:type": "public", "operator:wikidata": "Q5260272", "phone": "+61 3 5780 1264"}}, {"type": "way", "id": 427905053, "nodes": [4270694929, 4270694928, 4270694927, 7915307349, 4270694926, 4270694929], "tags": {"addr:housenumber": "1045", "addr:street": "Whittlesea-Kinglake Road", "amenity": "school", "grades": "0-6", "isced:level": "1", "name": "Kinglake West Primary School", "operator": "Victorian Department of Education", "operator:type": "public", "operator:wikidata": "Q5260272"}}, {"type": "way", "id": 978897053, "nodes": [9057595562, 9057595563, 9057595564, 9057595565, 9057595566, 9057595562], "tags": {"addr:housenumber": "52", "addr:street": "Main Road", "amenity": "school", "grades": "0-6", "isced:level": "1", "name": "Tallarook Primary School", "operator": "Victorian Department of Education", "operator:type": "public", "operator:wikidata": "Q5260272"}}]}