{"version": 0.6, "generator": "Overpass API 0.7.62.1 084b4234", "osm3s": {"timestamp_osm_base": "2024-09-03T04:43:23Z", "copyright": "The data included in this document is from www.openstreetmap.org. The data is made available under ODbL."}, "elements": [{"type": "node", "id": 489359442, "lat": -37.0306895, "lon": 145.1441936}, {"type": "node", "id": 489359444, "lat": -37.0306028, "lon": 145.1413746}, {"type": "node", "id": 587668146, "lat": -37.0198348, "lon": 145.1404667}, {"type": "node", "id": 670166070, "lat": -36.7895096, "lon": 145.1572592}, {"type": "node", "id": 670166072, "lat": -36.789227, "lon": 145.1546785}, {"type": "node", "id": 670166073, "lat": -36.787401, "lon": 145.1565143}, {"type": "node", "id": 670166075, "lat": -36.7875235, "lon": 145.1575953}, {"type": "node", "id": 710341140, "lat": -36.7583742, "lon": 145.5658186}, {"type": "node", "id": 710341142, "lat": -36.7567711, "lon": 145.5646599}, {"type": "node", "id": 710341144, "lat": -36.7581636, "lon": 145.5617631}, {"type": "node", "id": 710341146, "lat": -36.7598913, "lon": 145.5614412}, {"type": "node", "id": 710341149, "lat": -36.7603039, "lon": 145.5617577}, {"type": "node", "id": 710352083, "lat": -36.7558325, "lon": 145.5717743}, {"type": "node", "id": 710352085, "lat": -36.7551576, "lon": 145.5732068}, {"type": "node", "id": 710352087, "lat": -36.7557265, "lon": 145.5743667}, {"type": "node", "id": 710352089, "lat": -36.7570048, "lon": 145.5741085}, {"type": "node", "id": 1058938215, "lat": -36.8075756, "lon": 145.4225368}, {"type": "node", "id": 1058938318, "lat": -36.8077823, "lon": 145.4213058}, {"type": "node", "id": 1058938323, "lat": -36.8059772, "lon": 145.420833}, {"type": "node", "id": 1058938447, "lat": -36.8057705, "lon": 145.422064}, {"type": "node", "id": 2902851160, "lat": -36.7529366, "lon": 145.5694232}, {"type": "node", "id": 2902851161, "lat": -36.7525942, "lon": 145.5701807}, {"type": "node", "id": 2902851162, "lat": -36.7526995, "lon": 145.5702549}, {"type": "node", "id": 2902851163, "lat": -36.7521312, "lon": 145.5715121}, {"type": "node", "id": 2902851164, "lat": -36.7525925, "lon": 145.5718369}, {"type": "node", "id": 2902851165, "lat": -36.7530403, "lon": 145.5708463}, {"type": "node", "id": 2902851166, "lat": -36.753419, "lon": 145.571113}, {"type": "node", "id": 2902851167, "lat": -36.753882, "lon": 145.5700889}, {"type": "node", "id": 2995306288, "lat": -36.9022112, "lon": 145.2344223}, {"type": "node", "id": 2995306289, "lat": -36.9007509, "lon": 145.2333796}, {"type": "node", "id": 2995306290, "lat": -36.9004276, "lon": 145.234709}, {"type": "node", "id": 2995306291, "lat": -36.9022902, "lon": 145.2354174}, {"type": "node", "id": 2995314300, "lat": -36.9023197, "lon": 145.2339762}, {"type": "node", "id": 2995314301, "lat": -36.902505, "lon": 145.234534}, {"type": "node", "id": 2997079946, "lat": -36.7812555, "lon": 145.154239}, {"type": "node", "id": 2997079947, "lat": -36.7815716, "lon": 145.1525308}, {"type": "node", "id": 2997079948, "lat": -36.7822719, "lon": 145.1527418}, {"type": "node", "id": 2997079949, "lat": -36.7818468, "lon": 145.1542481}, {"type": "node", "id": 2997079950, "lat": -36.782079, "lon": 145.1535672}, {"type": "node", "id": 2997079951, "lat": -36.7822866, "lon": 145.1532344}, {"type": "node", "id": 2997087736, "lat": -36.7881817, "lon": 145.1555075}, {"type": "node", "id": 2997087737, "lat": -36.788274, "lon": 145.1563507}, {"type": "node", "id": 3374228652, "lat": -37.0211797, "lon": 145.1306444}, {"type": "node", "id": 3374228653, "lat": -37.0211901, "lon": 145.1321128}, {"type": "node", "id": 3374228654, "lat": -37.0216886, "lon": 145.1311209}, {"type": "node", "id": 3374228655, "lat": -37.0206828, "lon": 145.1308134}, {"type": "node", "id": 3374228656, "lat": -37.0210105, "lon": 145.132184}, {"type": "node", "id": 3374228657, "lat": -37.0208392, "lon": 145.1309314}, {"type": "node", "id": 3374228658, "lat": -37.020674, "lon": 145.1308924}, {"type": "node", "id": 8831887133, "lat": -36.7820755, "lon": 145.1533006}, {"type": "node", "id": 8835542957, "lat": -36.781902, "lon": 145.1535623}, {"type": "node", "id": 8835542958, "lat": -36.7818992, "lon": 145.1537558}, {"type": "node", "id": 8835542959, "lat": -36.781856, "lon": 145.1537561}, {"type": "node", "id": 10106058905, "lat": -37.0308598, "lon": 145.1440635}, {"type": "node", "id": 10106058906, "lat": -37.0308801, "lon": 145.1440193}, {"type": "node", "id": 10106058907, "lat": -37.0313897, "lon": 145.143633}, {"type": "node", "id": 10106058908, "lat": -37.0314175, "lon": 145.1436424}, {"type": "node", "id": 10106058909, "lat": -37.0321359, "lon": 145.1430966}, {"type": "node", "id": 10106058910, "lat": -37.0321423, "lon": 145.1430416}, {"type": "node", "id": 10106058911, "lat": -37.0310782, "lon": 145.1411962}, {"type": "node", "id": 10106058912, "lat": -37.0310439, "lon": 145.1411855}, {"type": "node", "id": 10106058913, "lat": -37.0306756, "lon": 145.1415181}, {"type": "node", "id": 10106058914, "lat": -37.0292849, "lon": 145.139147}, {"type": "node", "id": 10106058915, "lat": -37.0278834, "lon": 145.1394394}, {"type": "node", "id": 10106058916, "lat": -37.0192994, "lon": 145.1428699}, {"type": "node", "id": 10106095217, "lat": -37.0205501, "lon": 145.1403084}, {"type": "node", "id": 10106095218, "lat": -37.0206743, "lon": 145.1412901}, {"type": "node", "id": 10106095219, "lat": -37.0215523, "lon": 145.1411319}, {"type": "node", "id": 10106095220, "lat": -37.0217879, "lon": 145.1430443}, {"type": "node", "id": 10106095221, "lat": -37.0204194, "lon": 145.1449165}, {"type": "node", "id": 10106095222, "lat": -37.0198562, "lon": 145.1435083}, {"type": "node", "id": 10301581043, "lat": -36.7812471, "lon": 145.1530934}, {"type": "node", "id": 10301613535, "lat": -36.7820097, "lon": 145.1526073}, {"type": "way", "id": 52869336, "nodes": [670166070, 670166072, 2997087736, 2997087737, 670166073, 670166075, 670166070], "tags": {"addr:housenumber": "31", "addr:street": "Goulburn Street", "amenity": "school", "grades": "0-6", "isced:level": "1", "name": "Nagambie Primary School", "operator": "Victorian Department of Education", "operator:type": "public", "operator:wikidata": "Q5260272", "phone": "+61 3 5794 2273", "website": "http://www.nps.vic.edu.au/"}}, {"type": "way", "id": 56752105, "nodes": [710341140, 710341142, 710341144, 710341146, 710341149, 710341140], "tags": {"addr:housenumber": "26", "addr:street": "Campbell Street", "amenity": "school", "grades": "7-12", "isced:level": "2-3", "name": "Euroa Secondary College", "operator": "Victorian Department of Education", "operator:type": "public", "operator:wikidata": "Q5260272", "phone": "+61 3 5795 2512", "religion": "none", "website": "https://www.euroasc.vic.edu.au/", "wikidata": "Q5411675"}}, {"type": "way", "id": 56752445, "nodes": [710352083, 710352085, 710352087, 710352089, 710352083], "tags": {"addr:housenumber": "67", "addr:street": "Anderson Street", "amenity": "school", "grades": "0-6", "isced:level": "1", "name": "Euroa Primary School", "operator": "Victorian Department of Education", "operator:type": "public", "operator:wikidata": "Q5260272", "phone": "+61 3 5795 2212", "religion": "none", "website": "http://www.euroa-ps.vic.edu.au/"}}, {"type": "way", "id": 91229686, "nodes": [1058938323, 1058938447, 1058938215, 1058938318, 1058938323], "tags": {"addr:housenumber": "1-21", "addr:street": "Hurley Street", "amenity": "school", "grades": "0-6", "isced:level": "1", "name": "Longwood Primary School", "operator": "Victorian Department of Education", "operator:type": "public", "operator:wikidata": "Q5260272", "website": "www.longwoodps.vic.edu.au"}}, {"type": "way", "id": 286606972, "nodes": [2902851160, 2902851161, 2902851162, 2902851163, 2902851164, 2902851165, 2902851166, 2902851167, 2902851160], "tags": {"addr:housenumber": "37", "addr:street": "Anderson Street West", "amenity": "school", "denomination": "catholic", "grades": "0-6", "isced:level": "1", "name": "St John's Primary School", "operator": "Catholic Education Sandhurst Limited", "operator:short": "CESL", "operator:type": "religious", "operator:wikidata": "Q113026529", "phone": "+61 3 5795 2937", "religion": "christian", "website": "https://www.sjeuroa.catholic.edu.au/"}}, {"type": "way", "id": 295769072, "nodes": [2995306288, 2995314300, 2995306289, 2995306290, 2995306291, 2995314301, 2995306288], "tags": {"addr:housenumber": "39", "addr:street": "Livingstone Street", "amenity": "school", "grades": "0-6", "isced:level": "1", "name": "Avenel Primary School", "operator": "Victorian Department of Education", "operator:type": "public", "operator:wikidata": "Q5260272", "website": "https://www.avenelps.vic.edu.au/"}}, {"type": "way", "id": 295945014, "nodes": [2997079946, 10301581043, 2997079947, 10301613535, 2997079948, 2997079951, 8831887133, 2997079950, 8835542957, 8835542958, 8835542959, 2997079949, 2997079946], "tags": {"addr:housenumber": "367", "addr:street": "High Street", "amenity": "school", "denomination": "catholic", "fax": "+61 3 5794 1435", "grades": "0-6", "isced:level": "1", "name": "St Joseph's Primary School", "operator": "Catholic Education Sandhurst Limited", "operator:short": "CESL", "operator:type": "religious", "operator:wikidata": "Q113026529", "phone": "+61 3 5794 2608", "religion": "christian", "website": "https://www3.sjnagambie.catholic.edu.au/"}}, {"type": "way", "id": 330455288, "nodes": [3374228652, 3374228657, 3374228655, 3374228658, 3374228656, 3374228653, 3374228654, 3374228652], "tags": {"addr:housenumber": "50", "addr:street": "Tallarook Street", "amenity": "school", "grades": "7-12", "isced:level": "2-3", "name": "Seymour Flexible Learning Centre", "operator": "Victorian Department of Education", "operator:type": "public", "operator:wikidata": "Q5260272"}}, {"type": "way", "id": 1104381373, "nodes": [10106058915, 10106058914, 489359444, 10106058913, 10106058912, 10106058911, 10106058910, 10106058909, 10106058908, 10106058907, 10106058906, 10106058905, 489359442, 10106058915], "tags": {"addr:housenumber": "29", "addr:street": "Stewart Street", "amenity": "school", "grades": "0-12", "isced:level": "1-3", "name": "Seymour College", "operator": "Victorian Department of Education", "operator:type": "public", "operator:wikidata": "Q5260272", "wikidata": "Q7459150"}}, {"type": "way", "id": 1104381374, "nodes": [10106095222, 10106095221, 10106095220, 10106095219, 10106095218, 10106095217, 587668146, 10106058916, 10106095222], "tags": {"addr:housenumber": "90", "addr:street": "High Street", "amenity": "school", "denomination": "catholic", "grades": "0-12", "isced:level": "1-3", "name": "St Mary's College", "operator": "Melbourne Archdiocese Catholic Schools", "operator:short": "MACS", "operator:type": "religious", "operator:wikidata": "Q100769882", "religion": "christian", "wikidata": "Q7594483"}}]}