{"version": 0.6, "generator": "Overpass API 0.7.62.1 084b4234", "osm3s": {"timestamp_osm_base": "2024-09-03T04:45:28Z", "copyright": "The data included in this document is from www.openstreetmap.org. The data is made available under ODbL."}, "elements": [{"type": "node", "id": 2298260498, "lat": -35.8929058, "lon": 141.9959881}, {"type": "node", "id": 2298260507, "lat": -35.8945061, "lon": 141.9959778}, {"type": "node", "id": 2298260509, "lat": -35.8929105, "lon": 141.9970999}, {"type": "node", "id": 2298260510, "lat": -35.8945108, "lon": 141.9970896}, {"type": "node", "id": 2315475037, "lat": -35.7347326, "lon": 142.3645575}, {"type": "node", "id": 2315475040, "lat": -35.7362827, "lon": 142.3663332}, {"type": "node", "id": 2315475042, "lat": -35.7333286, "lon": 142.367748}, {"type": "node", "id": 2315475044, "lat": -35.7351567, "lon": 142.3689185}, {"type": "node", "id": 2315478959, "lat": -35.7325764, "lon": 142.3593572}, {"type": "node", "id": 2315478965, "lat": -35.7312929, "lon": 142.3608068}, {"type": "node", "id": 2315478967, "lat": -35.7315846, "lon": 142.3601273}, {"type": "node", "id": 2315478977, "lat": -35.7320009, "lon": 142.3595949}, {"type": "node", "id": 2315478981, "lat": -35.7323709, "lon": 142.359836}, {"type": "node", "id": 2315478985, "lat": -35.7317313, "lon": 142.3602229}, {"type": "node", "id": 2315478990, "lat": -35.7302838, "lon": 142.3578636}, {"type": "node", "id": 2315478994, "lat": -35.729517, "lon": 142.3596499}, {"type": "node", "id": 2387501906, "lat": -35.9451848, "lon": 142.4173191}, {"type": "node", "id": 2387501907, "lat": -35.9446632, "lon": 142.4194178}, {"type": "node", "id": 2387501908, "lat": -35.9440983, "lon": 142.4181221}, {"type": "node", "id": 2387501909, "lat": -35.9452043, "lon": 142.4190545}, {"type": "node", "id": 2387514267, "lat": -35.9446801, "lon": 142.4176921}, {"type": "node", "id": 2669468838, "lat": -35.7684571, "lon": 142.0561945}, {"type": "node", "id": 2669468839, "lat": -35.7679652, "lon": 142.0561837}, {"type": "node", "id": 4455059650, "lat": -35.7679652, "lon": 142.0578038}, {"type": "node", "id": 4455062051, "lat": -35.7688881, "lon": 142.0570789}, {"type": "node", "id": 4455062052, "lat": -35.7692362, "lon": 142.0577931}, {"type": "node", "id": 11417613081, "lat": -35.944237, "lon": 142.4184401}, {"type": "node", "id": 11417613082, "lat": -35.944627, "lon": 142.4193347}, {"type": "node", "id": 11444147073, "lat": -35.7325074, "lon": 142.3593123}, {"type": "node", "id": 11569550005, "lat": -35.8964341, "lon": 141.9955082}, {"type": "node", "id": 11569550006, "lat": -35.8964325, "lon": 141.9958319}, {"type": "node", "id": 11569550007, "lat": -35.8963607, "lon": 141.9958313}, {"type": "node", "id": 11569550044, "lat": -35.8963586, "lon": 141.9962529}, {"type": "node", "id": 11569550045, "lat": -35.8959066, "lon": 141.9962504}, {"type": "node", "id": 11569550046, "lat": -35.8959093, "lon": 141.995505}, {"type": "node", "id": 11618616942, "lat": -35.8935328, "lon": 141.9959841}, {"type": "node", "id": 11618616948, "lat": -35.8937041, "lon": 141.995983}, {"type": "way", "id": 220733453, "nodes": [2298260507, 11618616948, 11618616942, 2298260498, 2298260509, 2298260510, 2298260507], "tags": {"addr:housenumber": "17", "addr:street": "Albert Street", "alt_name": "Rainbow Secondary College", "amenity": "school", "grades": "0-12", "isced:level": "1-3", "name": "Rainbow P-12 College", "old_name": "Rainbow Co-located School", "operator": "Victorian Department of Education", "operator:type": "public", "operator:wikidata": "Q5260272", "phone": "+61 3 5395 1063", "website": "http://www.rainbowsc.vic.edu.au/"}}, {"type": "way", "id": 222591761, "nodes": [2315475037, 2315475042, 2315475044, 2315475040, 2315475037], "tags": {"addr:housenumber": "1", "addr:street": "Dodgshun Street", "amenity": "school", "grades": "7-12", "isced:level": "2-3", "name": "Hopetoun P-12 College Secondary Campus", "operator": "Victorian Department of Education", "operator:type": "public", "operator:wikidata": "Q5260272", "phone": "+61 3 5083 3203", "website": "https://hopetounp12.wordpress.com/"}}, {"type": "way", "id": 222592369, "nodes": [2315478981, 2315478977, 2315478985, 2315478967, 2315478965, 2315478994, 2315478990, 11444147073, 2315478959, 2315478981], "tags": {"addr:housenumber": "11", "addr:street": "Bruce Street", "amenity": "school", "grades": "0-6", "isced:level": "1", "name": "Hopetoun P-12 College Primary Campus", "operator": "Victorian Department of Education", "operator:type": "public", "operator:wikidata": "Q5260272", "phone": "+61 3 5083 3135", "website": "https://hopetounp12.wordpress.com/"}}, {"type": "way", "id": 230223454, "nodes": [2387501907, 2387501909, 2387501906, 2387514267, 2387501908, 11417613081, 11417613082, 2387501907], "tags": {"addr:housenumber": "14", "addr:street": "Henty Highway", "amenity": "school", "grades": "0-6", "isced:level": "1", "name": "Beulah Primary School", "operator": "Victorian Department of Education", "operator:type": "public", "operator:wikidata": "Q5260272", "phone": "+61 3 5390 2332", "website": "https://www.beulahps.vic.edu.au/"}}, {"type": "way", "id": 261314945, "nodes": [2669468838, 2669468839, 4455059650, 4455062052, 4455062051, 2669468838], "tags": {"addr:housenumber": "4", "addr:street": "Wood Street", "amenity": "school", "grades": "0-6", "isced:level": "1", "name": "Yaapeet Primary School", "operator": "Victorian Department of Education", "operator:type": "public", "operator:wikidata": "Q5260272"}}, {"type": "way", "id": 1244613606, "nodes": [11569550044, 11569550045, 11569550046, 11569550005, 11569550006, 11569550007, 11569550044], "tags": {"amenity": "school", "name": "Rainbow Primary School"}}]}