{"version": 0.6, "generator": "Overpass API 0.7.62.1 084b4234", "osm3s": {"timestamp_osm_base": "2024-09-03T04:45:28Z", "copyright": "The data included in this document is from www.openstreetmap.org. The data is made available under ODbL."}, "elements": [{"type": "node", "id": 930030271, "lat": -37.766682, "lon": 142.0960227}, {"type": "node", "id": 1861243347, "lat": -37.7379561, "lon": 142.0231435}, {"type": "node", "id": 1861243348, "lat": -37.7368046, "lon": 142.0246241}, {"type": "node", "id": 1861243349, "lat": -37.738167, "lon": 142.0237122}, {"type": "node", "id": 1861243351, "lat": -37.7367551, "lon": 142.0231484}, {"type": "node", "id": 1993627465, "lat": -37.7253761, "lon": 141.9952671}, {"type": "node", "id": 1993627467, "lat": -37.7265235, "lon": 141.99425}, {"type": "node", "id": 1993627473, "lat": -37.7267222, "lon": 141.9961739}, {"type": "node", "id": 1993627475, "lat": -37.7254907, "lon": 141.9963771}, {"type": "node", "id": 1993635411, "lat": -37.7327067, "lon": 142.0106128}, {"type": "node", "id": 1993635412, "lat": -37.7353924, "lon": 142.0129311}, {"type": "node", "id": 1993635413, "lat": -37.7330213, "lon": 142.0134543}, {"type": "node", "id": 1993635414, "lat": -37.7353712, "lon": 142.0131228}, {"type": "node", "id": 1993635415, "lat": -37.7334835, "lon": 142.0105321}, {"type": "node", "id": 1993691879, "lat": -37.7424942, "lon": 142.0505527}, {"type": "node", "id": 1993691881, "lat": -37.7435626, "lon": 142.0503639}, {"type": "node", "id": 1993691889, "lat": -37.7431673, "lon": 142.0467851}, {"type": "node", "id": 1993691893, "lat": -37.74258, "lon": 142.0513294}, {"type": "node", "id": 1993691897, "lat": -37.7398144, "lon": 142.047441}, {"type": "node", "id": 1993691899, "lat": -37.7406567, "lon": 142.0517186}, {"type": "node", "id": 1994844759, "lat": -37.7315148, "lon": 142.0320819}, {"type": "node", "id": 1994844760, "lat": -37.7293944, "lon": 142.0308182}, {"type": "node", "id": 1994844761, "lat": -37.7322488, "lon": 142.0319565}, {"type": "node", "id": 1994844762, "lat": -37.7315547, "lon": 142.032486}, {"type": "node", "id": 1994844763, "lat": -37.7324285, "lon": 142.0300648}, {"type": "node", "id": 1994844765, "lat": -37.7295979, "lon": 142.0327288}, {"type": "node", "id": 1996811927, "lat": -37.7341859, "lon": 142.0233737}, {"type": "node", "id": 1996811928, "lat": -37.7350022, "lon": 142.0217526}, {"type": "node", "id": 2003847436, "lat": -37.7278082, "lon": 142.0224322}, {"type": "node", "id": 2003847437, "lat": -37.7273542, "lon": 142.0220697}, {"type": "node", "id": 2003847438, "lat": -37.7277677, "lon": 142.0220088}, {"type": "node", "id": 2003847439, "lat": -37.7273234, "lon": 142.0217009}, {"type": "node", "id": 2003847440, "lat": -37.726392, "lon": 142.0218245}, {"type": "node", "id": 2003847441, "lat": -37.7258976, "lon": 142.0213059}, {"type": "node", "id": 2003847442, "lat": -37.7263383, "lon": 142.0212375}, {"type": "node", "id": 2003847443, "lat": -37.7260247, "lon": 142.0227202}, {"type": "node", "id": 2010151316, "lat": -37.7450392, "lon": 142.0220305}, {"type": "node", "id": 2010151317, "lat": -37.7449814, "lon": 142.0225132}, {"type": "node", "id": 2010151318, "lat": -37.7449753, "lon": 142.021162}, {"type": "node", "id": 2010151319, "lat": -37.7464624, "lon": 142.0224106}, {"type": "node", "id": 2010151320, "lat": -37.7447844, "lon": 142.0215258}, {"type": "node", "id": 2010151321, "lat": -37.7459718, "lon": 142.0233449}, {"type": "node", "id": 2137344120, "lat": -37.7410473, "lon": 142.0471596}, {"type": "node", "id": 2234550982, "lat": -37.7460629, "lon": 142.0368349}, {"type": "node", "id": 2234550983, "lat": -37.7467153, "lon": 142.0342474}, {"type": "node", "id": 2234550984, "lat": -37.745804, "lon": 142.0344025}, {"type": "node", "id": 2234550985, "lat": -37.7469741, "lon": 142.0366797}, {"type": "node", "id": 2241906710, "lat": -37.7456624, "lon": 142.0637584}, {"type": "node", "id": 2241906712, "lat": -37.7462392, "lon": 142.0623099}, {"type": "node", "id": 2241906714, "lat": -37.7455034, "lon": 142.0624548}, {"type": "node", "id": 2241906718, "lat": -37.7463835, "lon": 142.0636243}, {"type": "node", "id": 2411622704, "lat": -37.7276908, "lon": 142.0368361}, {"type": "node", "id": 2411622705, "lat": -37.7294632, "lon": 142.0329886}, {"type": "node", "id": 2411622706, "lat": -37.7298811, "lon": 142.037006}, {"type": "node", "id": 2411622707, "lat": -37.7272764, "lon": 142.0332954}, {"type": "node", "id": 3115995375, "lat": -37.7656538, "lon": 142.0347423}, {"type": "node", "id": 3115995376, "lat": -37.7730157, "lon": 142.0420433}, {"type": "node", "id": 3115995377, "lat": -37.7746715, "lon": 142.0398638}, {"type": "node", "id": 3115995378, "lat": -37.7716758, "lon": 142.0447754}, {"type": "node", "id": 3115995379, "lat": -37.7668637, "lon": 142.0453355}, {"type": "node", "id": 3115995380, "lat": -37.7690802, "lon": 142.0448988}, {"type": "node", "id": 3115995381, "lat": -37.7691315, "lon": 142.0451761}, {"type": "node", "id": 3751051736, "lat": -37.5304081, "lon": 142.0411849}, {"type": "node", "id": 3991360116, "lat": -37.7366014, "lon": 142.0230477}, {"type": "node", "id": 5389982744, "lat": -37.7432477, "lon": 142.0475128, "tags": {"barrier": "gate"}}, {"type": "node", "id": 5389982776, "lat": -37.7422306, "lon": 142.0513911}, {"type": "node", "id": 5389992822, "lat": -37.7387685, "lon": 142.0488141}, {"type": "node", "id": 5389992823, "lat": -37.7400214, "lon": 142.0484924}, {"type": "node", "id": 5389992824, "lat": -37.7393983, "lon": 142.0519676}, {"type": "node", "id": 5389992825, "lat": -37.7393162, "lon": 142.0515564}, {"type": "node", "id": 5864745050, "lat": -37.7450878, "lon": 142.0217805}, {"type": "node", "id": 10227861674, "lat": -37.7359608, "lon": 142.024703}, {"type": "node", "id": 10227861675, "lat": -37.7357598, "lon": 142.0246088}, {"type": "node", "id": 10227861676, "lat": -37.7296563, "lon": 142.0307779}, {"type": "node", "id": 10227861677, "lat": -37.7296435, "lon": 142.0304561}, {"type": "node", "id": 10227861678, "lat": -37.7258115, "lon": 141.9943676}, {"type": "node", "id": 10227861679, "lat": -37.7258955, "lon": 141.9951813}, {"type": "node", "id": 10227861680, "lat": -37.7659993, "lon": 142.0940781}, {"type": "node", "id": 10227861681, "lat": -37.7680538, "lon": 142.0936784}, {"type": "node", "id": 10227861682, "lat": -37.7682828, "lon": 142.0952556}, {"type": "node", "id": 10227861707, "lat": -37.5314043, "lon": 142.0417674}, {"type": "node", "id": 10227861708, "lat": -37.5312022, "lon": 142.0395268}, {"type": "node", "id": 10227861709, "lat": -37.5302664, "lon": 142.039661}, {"type": "node", "id": 10227861710, "lat": -37.5304684, "lon": 142.0419016}, {"type": "node", "id": 11185413503, "lat": -37.745175, "lon": 142.0221445}, {"type": "node", "id": 11185413504, "lat": -37.7451452, "lon": 142.0218286}, {"type": "node", "id": 11368136159, "lat": -37.7320809, "lon": 142.0303708}, {"type": "node", "id": 11368136160, "lat": -37.7319219, "lon": 142.0303933}, {"type": "node", "id": 11368136161, "lat": -37.7318988, "lon": 142.0301948}, {"type": "node", "id": 11368136162, "lat": -37.7324322, "lon": 142.0300984}, {"type": "node", "id": 11368136163, "lat": -37.7320266, "lon": 142.0301271}, {"type": "node", "id": 11368136164, "lat": -37.7280607, "lon": 142.0372433}, {"type": "way", "id": 188742735, "nodes": [1993627473, 1993627467, 10227861678, 10227861679, 1993627465, 1993627475, 1993627473], "tags": {"addr:housenumber": "34-50", "addr:street": "Andrews Street", "amenity": "school", "grades": "0-6", "isced:level": "1", "name": "Hamilton North Primary School", "operator": "Victorian Department of Education", "operator:type": "public", "operator:wikidata": "Q5260272", "phone": "+61 3 5571 2433", "website": "http://www.hamiltonnorthps.vic.edu.au/"}}, {"type": "way", "id": 188743684, "nodes": [1993635415, 1993635411, 1993635413, 1993635414, 1993635412, 1993635415], "tags": {"addr:housenumber": "59-85", "addr:postcode": "3300", "addr:state": "VIC", "addr:street": "Mount Baimbridge Road", "addr:suburb": "Hamilton", "amenity": "school", "grades": "7-12", "isced:level": "2-3", "name": "Baimbridge College", "operator": "Victorian Department of Education", "operator:type": "public", "operator:wikidata": "Q5260272", "website": "https://www.baimbridge.vic.edu.au/", "wikidata": "Q30646453", "wikipedia": "en:Baimbridge College"}}, {"type": "way", "id": 188748273, "nodes": [1993691889, 2137344120, 1993691897, 5389992823, 1993691899, 5389982776, 1993691893, 1993691879, 1993691881, 5389982744, 1993691889], "tags": {"addr:housenumber": "133", "addr:street": "Ballarat Road", "amenity": "school", "denomination": "catholic", "grades": "7-12", "isced:level": "2-3", "name": "Monivae College", "operator": "Diocese of Ballarat Catholic Education Limited", "operator:short": "DOBCEL", "operator:type": "religious", "operator:wikidata": "Q113059804", "phone": "+61 3 5551 1200", "religion": "christian", "website": "https://www.monivae.com/", "wikidata": "Q6900526", "wikipedia": "en:Monivae College"}}, {"type": "way", "id": 188849856, "nodes": [1994844763, 11368136163, 10227861677, 10227861676, 1994844760, 1994844765, 1994844762, 1994844759, 1994844761, 11368136159, 11368136160, 11368136161, 11368136162, 1994844763], "tags": {"addr:housenumber": "33-57", "addr:street": "McArthur Street", "amenity": "school", "denomination": "lutheran", "grades": "0-6", "isced:level": "1", "name": "Good Shepherd College Junior Campus", "operator": "Lutheran Education Australia", "operator:type": "religious", "operator:wikidata": "Q113435241", "religion": "christian"}}, {"type": "way", "id": 189780043, "nodes": [2003847436, 2003847438, 2003847437, 2003847439, 2003847440, 2003847442, 2003847441, 2003847443, 2003847436], "tags": {"addr:housenumber": "15", "addr:street": "Kerr Street", "amenity": "school", "grades": "0-12", "isced:level": "1-3", "name": "Hamilton Parklands School", "old_name": "Hamilton Special Developmental School", "operator": "Victorian Department of Education", "operator:type": "public", "operator:wikidata": "Q5260272", "phone": "+61 3 5572 3077", "school": "special_education_needs", "website": "http://hamiltonsds.vic.edu.au"}}, {"type": "way", "id": 190377573, "nodes": [2010151321, 2010151319, 2010151318, 2010151320, 5864745050, 11185413504, 2010151316, 11185413503, 2010151317, 2010151321], "tags": {"addr:housenumber": "42", "addr:street": "Gray Street", "amenity": "school", "grades": "0-6", "isced:level": "1", "name": "Hamilton (Gray Street) Primary School", "operator": "Victorian Department of Education", "operator:type": "public", "operator:wikidata": "Q5260272", "phone": "+61 3 5571 9295", "website": "http://www.hamiltonps-grayst.vic.edu.au/"}}, {"type": "way", "id": 213825069, "nodes": [2234550983, 2234550984, 2234550982, 2234550985, 2234550983], "tags": {"addr:housenumber": "32-48", "addr:street": "George Street", "amenity": "school", "grades": "0-6", "isced:level": "1", "name": "George Street Primary School", "operator": "Victorian Department of Education", "operator:type": "public", "operator:wikidata": "Q5260272", "phone": "+61 3 5571 1478", "website": "http://www.georgestham-ps.vic.edu.au"}}, {"type": "way", "id": 214708095, "nodes": [2241906712, 2241906714, 2241906710, 2241906718, 2241906712], "tags": {"addr:housenumber": "90", "addr:street": "Hamilton-Chatsworth Road", "amenity": "school", "denomination": "exclusive_brethren", "grades": "0-12", "isced:level": "1-3", "name": "OneSchool Global Hamilton Campus", "old_name": "Glenvale School", "operator": "Plymouth Brethren Christian Church", "operator:type": "religious", "operator:wikidata": "Q16258191", "religion": "christian"}}, {"type": "way", "id": 232851539, "nodes": [2411622707, 2411622704, 11368136164, 2411622706, 2411622705, 2411622707], "tags": {"addr:housenumber": "241", "addr:street": "Kent Road", "alt_name": "Hamilton and Alexandra College", "amenity": "school", "denomination": "uniting", "grades": "0-6", "isced:level": "1", "name": "The Hamilton and Alexandra College Junior Campus", "operator": "The Hamilton and Alexandra College", "operator:type": "private", "phone": "+61 3 5572 1355", "religion": "christian", "website": "https://www.hamiltoncollege.vic.edu.au/", "wikidata": "Q5645259", "wikipedia": "en:Hamilton and Alexandra College"}}, {"type": "way", "id": 306627192, "nodes": [3115995378, 3115995376, 3115995377, 3115995375, 3115995379, 3115995380, 3115995381, 3115995378], "tags": {"addr:housenumber": "297", "addr:street": "Mount Napier Road", "amenity": "school", "denomination": "lutheran", "grades": "7-12", "isced:level": "2-3", "name": "Good Shepherd College", "operator": "Lutheran Education Australia", "operator:type": "religious", "operator:wikidata": "Q113435241", "religion": "christian"}}, {"type": "way", "id": 324930957, "nodes": [10227861709, 3751051736, 10227861710, 10227861707, 10227861708, 10227861709], "tags": {"addr:housenumber": "8-10", "addr:street": "Barker Street", "amenity": "school", "grades": "0-6", "isced:level": "1", "name": "Cavendish Primary School", "operator": "Victorian Department of Education", "operator:type": "public", "operator:wikidata": "Q5260272"}}, {"type": "way", "id": 558834510, "nodes": [5389992822, 5389992823, 1993691899, 5389992824, 5389992825, 5389992822], "tags": {"addr:housenumber": "27", "addr:street": "Hiller Lane", "amenity": "school", "denomination": "catholic", "grades": "0-6", "isced:level": "1", "name": "St Mary's Primary School", "operator": "Diocese of Ballarat Catholic Education Limited", "operator:short": "DOBCEL", "operator:type": "religious", "operator:wikidata": "Q113059804", "religion": "christian"}}, {"type": "way", "id": 1118293483, "nodes": [3991360116, 1996811928, 1996811927, 10227861675, 3991360116]}, {"type": "way", "id": 1118293484, "nodes": [10227861674, 1861243348, 1861243349, 1861243347, 1861243351, 10227861674]}, {"type": "way", "id": 1118293485, "nodes": [930030271, 10227861682, 10227861681, 10227861680, 930030271], "tags": {"addr:housenumber": "7901", "addr:street": "Hamilton Highway", "amenity": "school", "denomination": "lutheran", "grades": "0-6", "isced:level": "1", "name": "Tarrington Lutheran School", "operator": "Lutheran Education Australia", "operator:type": "religious", "operator:wikidata": "Q113435241", "religion": "christian"}}, {"type": "relation", "id": 14953148, "members": [{"type": "way", "ref": 1118293484, "role": "outer"}, {"type": "way", "ref": 1118293483, "role": "outer"}], "tags": {"addr:housenumber": "1", "addr:street": "Chaucer Street", "alt_name": "Hamilton and Alexandra College", "amenity": "school", "denomination": "uniting", "grades": "7-12", "isced:level": "2-3", "name": "The Hamilton and Alexandra College", "operator": "The Hamilton and Alexandra College", "operator:type": "private", "phone": "+61 3 5572 1355", "religion": "christian", "type": "multipolygon", "website": "https://www.hamiltoncollege.vic.edu.au/", "wikidata": "Q5645259", "wikipedia": "en:Hamilton and Alexandra College"}}]}