{"version": 0.6, "generator": "Overpass API 0.7.62.1 084b4234", "osm3s": {"timestamp_osm_base": "2024-09-11T11:00:43Z", "copyright": "The data included in this document is from www.openstreetmap.org. The data is made available under ODbL."}, "elements": [{"type": "node", "id": 416857449, "lat": -38.1733462, "lon": 146.2591517}, {"type": "node", "id": 416887036, "lat": -38.2369835, "lon": 146.4286083, "tags": {"amenity": "cinema", "brand": "Village", "brand:wikidata": "Q7930631", "brand:wikipedia": "en:Village Cinemas", "name": "Village 8", "website": "https://villagecinemas.com.au/cinemas/morwell"}}, {"type": "node", "id": 489379485, "lat": -38.3138184, "lon": 146.4201968, "tags": {"brand": "Woolworths", "brand:wikidata": "Q3249145", "name": "Woolworths", "operator": "Woolworths Group", "operator:wikidata": "Q607272", "shop": "supermarket", "website": "https://www.woolworths.com.au/"}}, {"type": "node", "id": 489384726, "lat": -38.3121751, "lon": 146.4210208, "tags": {"name": "Richies IGA Churchill", "shop": "supermarket"}}, {"type": "node", "id": 1080073998, "lat": -38.1739028, "lon": 146.2585052}, {"type": "node", "id": 1080074004, "lat": -38.1739745, "lon": 146.2590068}, {"type": "node", "id": 1080074005, "lat": -38.17339, "lon": 146.258612}, {"type": "node", "id": 1080074011, "lat": -38.1732597, "lon": 146.2585508}, {"type": "node", "id": 1080074026, "lat": -38.1733757, "lon": 146.2585213}, {"type": "node", "id": 1080078711, "lat": -38.1752259, "lon": 146.2642966}, {"type": "node", "id": 1080078729, "lat": -38.1757141, "lon": 146.2642407}, {"type": "node", "id": 1080078731, "lat": -38.1757582, "lon": 146.2648162}, {"type": "node", "id": 1080078763, "lat": -38.1752538, "lon": 146.2647416}, {"type": "node", "id": 1212691185, "lat": -38.189705, "lon": 146.2939693, "tags": {"shop": "convenience"}}, {"type": "node", "id": 1221088334, "lat": -38.2368061, "lon": 146.4294341, "tags": {"brand": "Woolworths", "brand:wikidata": "Q3249145", "brand:wikipedia": "en:Woolworths Supermarkets", "name": "Woolworths", "shop": "supermarket", "website": "https://www.woolworths.com.au/"}}, {"type": "node", "id": 1222247271, "lat": -38.1939842, "lon": 146.5398932, "tags": {"addr:housenumber": "146-188", "addr:street": "Franklin Street", "brand": "Coles", "brand:wikidata": "Q1108172", "brand:wikipedia": "en:Coles Supermarkets", "name": "Coles", "operator": "Coles Group", "operator:wikidata": "Q1339055", "shop": "supermarket", "website": "https://www.coles.com.au/", "wheelchair": "yes"}}, {"type": "node", "id": 1432010972, "lat": -38.3123396, "lon": 146.4208059, "tags": {"name": "Churchill Bakery", "shop": "bakery"}}, {"type": "node", "id": 1432021170, "lat": -38.3211026, "lon": 146.4245396, "tags": {"shop": "convenience"}}, {"type": "node", "id": 1446878152, "lat": -38.196072, "lon": 146.5339903}, {"type": "node", "id": 1446878168, "lat": -38.1966943, "lon": 146.5342718}, {"type": "node", "id": 1446878174, "lat": -38.1967002, "lon": 146.5343461}, {"type": "node", "id": 1446878175, "lat": -38.1965897, "lon": 146.5343603}, {"type": "node", "id": 1446878183, "lat": -38.1967211, "lon": 146.5342683}, {"type": "node", "id": 1446878184, "lat": -38.1961127, "lon": 146.5344999}, {"type": "node", "id": 1446878195, "lat": -38.1965959, "lon": 146.5344375}, {"type": "node", "id": 1446878207, "lat": -38.1966925, "lon": 146.5339101}, {"type": "node", "id": 1602025175, "lat": -38.1750864, "lon": 146.2582923}, {"type": "node", "id": 1602025204, "lat": -38.1751993, "lon": 146.2576448}, {"type": "node", "id": 1602025206, "lat": -38.1752202, "lon": 146.2583301}, {"type": "node", "id": 1602025211, "lat": -38.1753587, "lon": 146.2582741}, {"type": "node", "id": 1602025213, "lat": -38.175236, "lon": 146.2582395}, {"type": "node", "id": 1602025262, "lat": -38.1754558, "lon": 146.2577172}, {"type": "node", "id": 1602025278, "lat": -38.175422, "lon": 146.2579113}, {"type": "node", "id": 1603049816, "lat": -38.1753505, "lon": 146.2647362}, {"type": "node", "id": 1603049821, "lat": -38.1753547, "lon": 146.264905}, {"type": "node", "id": 1604746392, "lat": -38.1600073, "lon": 146.3623489}, {"type": "node", "id": 1604746394, "lat": -38.1600832, "lon": 146.3625393}, {"type": "node", "id": 1604746402, "lat": -38.1598006, "lon": 146.362601}, {"type": "node", "id": 1604746404, "lat": -38.1600747, "lon": 146.3624964}, {"type": "node", "id": 1604746410, "lat": -38.1597795, "lon": 146.3623945}, {"type": "node", "id": 1808687856, "lat": -38.2390054, "lon": 146.3983912, "tags": {"addr:housenumber": "82", "addr:street": "George Street", "brand": "Coles", "brand:wikidata": "Q1108172", "brand:wikipedia": "en:Coles Supermarkets", "name": "Coles", "shop": "supermarket", "source": "local knowledge", "website": "https://www.coles.com.au/"}}, {"type": "node", "id": 1808687857, "lat": -38.239334, "lon": 146.3975768, "tags": {"shop": "bakery"}}, {"type": "node", "id": 1922873504, "lat": -37.9778279, "lon": 146.3720502, "tags": {"shop": "convenience"}}, {"type": "node", "id": 1993077611, "lat": -38.0138706, "lon": 146.6955751, "tags": {"name": "Cowwarr General Store", "shop": "convenience"}}, {"type": "node", "id": 2022265934, "lat": -38.1995132, "lon": 146.5341924}, {"type": "node", "id": 2022265935, "lat": -38.199404, "lon": 146.5343371}, {"type": "node", "id": 2022265938, "lat": -38.1994494, "lon": 146.5344731}, {"type": "node", "id": 2022265939, "lat": -38.199379, "lon": 146.5344472}, {"type": "node", "id": 2058953753, "lat": -38.2231486, "lon": 146.4669987}, {"type": "node", "id": 2058953754, "lat": -38.2231851, "lon": 146.4670387}, {"type": "node", "id": 2058953756, "lat": -38.2230316, "lon": 146.4668664}, {"type": "node", "id": 2058953757, "lat": -38.2229564, "lon": 146.4669775}, {"type": "node", "id": 2058953759, "lat": -38.2231114, "lon": 146.4671476}, {"type": "node", "id": 2058953763, "lat": -38.2231052, "lon": 146.4669471}, {"type": "node", "id": 2059124934, "lat": -38.1958588, "lon": 146.5377824, "tags": {"name": "Traralgon Hot Bread", "shop": "bakery", "wheelchair": "yes"}}, {"type": "node", "id": 2351881063, "lat": -38.1967139, "lon": 146.5341784}, {"type": "node", "id": 2697733623, "lat": -38.1951272, "lon": 146.5360639}, {"type": "node", "id": 2697733624, "lat": -38.1947671, "lon": 146.5360685}, {"type": "node", "id": 2697733625, "lat": -38.1948001, "lon": 146.5363746}, {"type": "node", "id": 3362493528, "lat": -38.1750204, "lon": 146.2636775}, {"type": "node", "id": 3362493565, "lat": -38.1750887, "lon": 146.2636116}, {"type": "node", "id": 3362495201, "lat": -38.1750923, "lon": 146.2636702}, {"type": "node", "id": 3362495231, "lat": -38.1750167, "lon": 146.2636189}, {"type": "node", "id": 3362544741, "lat": -38.199438, "lon": 146.5341647}, {"type": "node", "id": 3424586912, "lat": -38.2342739, "lon": 146.4369035}, {"type": "node", "id": 3424586920, "lat": -38.2343849, "lon": 146.436959}, {"type": "node", "id": 3424586923, "lat": -38.2343371, "lon": 146.4370028}, {"type": "node", "id": 3424586929, "lat": -38.2343668, "lon": 146.4370176}, {"type": "node", "id": 3424586931, "lat": -38.2342558, "lon": 146.4369621}, {"type": "node", "id": 3507944229, "lat": -38.1886721, "lon": 146.2502187, "tags": {"name": "IGA Moe", "shop": "supermarket"}}, {"type": "node", "id": 3529759440, "lat": -38.2382744, "lon": 146.4057703}, {"type": "node", "id": 3529759442, "lat": -38.2382305, "lon": 146.4055403}, {"type": "node", "id": 3529759443, "lat": -38.2383186, "lon": 146.4055936}, {"type": "node", "id": 3529759444, "lat": -38.2381154, "lon": 146.4056655}, {"type": "node", "id": 3529759455, "lat": -38.238367, "lon": 146.4057354}, {"type": "node", "id": 3529759456, "lat": -38.2381808, "lon": 146.4055046}, {"type": "node", "id": 3529759459, "lat": -38.2384016, "lon": 146.4056501}, {"type": "node", "id": 3707139727, "lat": -38.2332792, "lon": 146.414337}, {"type": "node", "id": 3707139728, "lat": -38.2333309, "lon": 146.4143261}, {"type": "node", "id": 3707139729, "lat": -38.2333253, "lon": 146.4142827}, {"type": "node", "id": 3707139730, "lat": -38.2334269, "lon": 146.4142613}, {"type": "node", "id": 3707139731, "lat": -38.2334544, "lon": 146.4144735}, {"type": "node", "id": 3707139732, "lat": -38.2333011, "lon": 146.4145058}, {"type": "node", "id": 3727210506, "lat": -38.1922396, "lon": 146.5552884}, {"type": "node", "id": 3727210507, "lat": -38.1928469, "lon": 146.5553205}, {"type": "node", "id": 3727210508, "lat": -38.1928354, "lon": 146.5556734}, {"type": "node", "id": 3727210509, "lat": -38.1922281, "lon": 146.5556413}, {"type": "node", "id": 4396897461, "lat": -38.1258028, "lon": 146.5732949, "tags": {"brand": "IGA", "brand:wikidata": "Q5970945", "brand:wikipedia": "en:IGA (Australian supermarket group)", "name": "IGA", "operator": "IGA", "shop": "supermarket"}}, {"type": "node", "id": 4483203045, "lat": -38.1951488, "lon": 146.536359}, {"type": "node", "id": 4538690918, "lat": -38.2925273, "lon": 146.70029, "tags": {"name": "Gormandale General Store", "shop": "convenience"}}, {"type": "node", "id": 5265678365, "lat": -38.175431, "lon": 146.2598143, "tags": {"name": "Bakery", "shop": "bakery"}}, {"type": "node", "id": 6632476499, "lat": -38.1739397, "lon": 146.2595265}, {"type": "node", "id": 6632476519, "lat": -38.1739581, "lon": 146.259669}, {"type": "node", "id": 6632476534, "lat": -38.17402, "lon": 146.2596561}, {"type": "node", "id": 6632476535, "lat": -38.1740017, "lon": 146.2595136}, {"type": "node", "id": 6924567398, "lat": -38.1948182, "lon": 146.5360679}, {"type": "node", "id": 6924567401, "lat": -38.1949193, "lon": 146.5360666}, {"type": "node", "id": 7403718472, "lat": -38.2370672, "lon": 146.429453, "tags": {"brand": "ALDI", "brand:wikidata": "Q41171672", "brand:wikipedia": "en:Aldi", "name": "ALDI", "shop": "supermarket"}}, {"type": "node", "id": 7502237341, "lat": -38.1975015, "lon": 146.5373637, "tags": {"shop": "bakery"}}, {"type": "node", "id": 8559040086, "lat": -38.1944425, "lon": 146.5400887, "tags": {"brand": "Bakers Delight", "brand:wikidata": "Q4849261", "brand:wikipedia": "en:Bakers Delight", "name": "Bakers Delight", "shop": "bakery"}}, {"type": "node", "id": 8559040088, "lat": -38.1963751, "lon": 146.5368093, "tags": {"brand": "Banjo's Bakery Cafe", "brand:wikidata": "Q105904686", "name": "Banjo's Bakery Cafe", "shop": "bakery"}}, {"type": "node", "id": 9462093336, "lat": -37.9565748, "lon": 146.3981814, "tags": {"name": "Rawson General Store", "shop": "convenience"}}, {"type": "node", "id": 9892462154, "lat": -38.1962636, "lon": 146.5404186, "tags": {"addr:housenumber": "2", "addr:postcode": "3850", "addr:state": "VIC", "addr:street": "Seymour Street", "addr:suburb": "Traralgon", "cuisine": "asian", "name": "Traralgon Asian Groceries", "opening_hours": "Tu-Sa 10:00-17:30", "operator": "Traralgon Asian Groceries Pty Ltd", "origin": "asian", "payment:cash": "yes", "payment:credit_cards": "yes", "payment:debit_cards": "yes", "phone": "+61 481 308 102", "shop": "supermarket"}}, {"type": "node", "id": 10722475235, "lat": -38.200288, "lon": 146.5355227}, {"type": "node", "id": 10722475236, "lat": -38.2002762, "lon": 146.535648}, {"type": "node", "id": 10722475237, "lat": -38.2004303, "lon": 146.5356714}, {"type": "node", "id": 10722475238, "lat": -38.2004421, "lon": 146.5355461}, {"type": "node", "id": 10722475239, "lat": -38.2003414, "lon": 146.5355315}, {"type": "node", "id": 10722475246, "lat": -38.2004202, "lon": 146.5355458}, {"type": "node", "id": 11292934049, "lat": -38.1795701, "lon": 146.5626397}, {"type": "node", "id": 12105529507, "lat": -38.197436, "lon": 146.5237592, "tags": {"brand": "Foodworks", "brand:wikidata": "Q5465579", "name": "Foodworks", "opening_hours": "Mo-Fr 07:00-20:00; Sa,Su 08:00-20:00", "shop": "supermarket"}}, {"type": "node", "id": 12143626341, "lat": -38.1794312, "lon": 146.5616511}, {"type": "node", "id": 12143626342, "lat": -38.1786321, "lon": 146.5618102}, {"type": "node", "id": 12143626343, "lat": -38.1787516, "lon": 146.5627799}, {"type": "node", "id": 12169388710, "lat": -38.1788311, "lon": 146.5617706}, {"type": "node", "id": 12169388712, "lat": -38.1786891, "lon": 146.5617989}, {"type": "way", "id": 93168907, "nodes": [1080074004, 1080073998, 1080074005, 1080074026, 1080074011, 416857449, 1080074004], "tags": {"addr:housenumber": "92 - 98", "addr:street": "Albert Street", "brand": "Coles", "brand:wikidata": "Q1108172", "brand:wikipedia": "en:Coles Supermarkets", "building": "retail", "name": "Coles", "shop": "supermarket", "website": "https://www.coles.com.au/"}}, {"type": "way", "id": 93169080, "nodes": [1080078729, 1080078731, 1603049821, 1603049816, 1080078763, 1080078711, 1080078729], "tags": {"brand": "Woolworths", "brand:wikidata": "Q3249145", "brand:wikipedia": "en:Woolworths Supermarkets", "building": "yes", "name": "Woolworths", "shop": "supermarket", "website": "https://www.woolworths.com.au/"}}, {"type": "way", "id": 131476918, "nodes": [1446878184, 1446878195, 1446878175, 1446878174, 1446878168, 1446878183, 2351881063, 1446878207, 1446878152, 1446878184], "tags": {"brand": "Woolworths", "brand:wikidata": "Q3249145", "brand:wikipedia": "en:Woolworths Supermarkets", "building": "yes", "name": "Woolworths", "operator": "Woolworths Group", "operator:wikidata": "Q607272", "shop": "supermarket", "source": "survey, Bing", "website": "https://www.woolworths.com.au/", "wheelchair": "yes"}}, {"type": "way", "id": 147005143, "nodes": [1602025204, 1602025175, 1602025206, 1602025213, 1602025211, 1602025278, 1602025262, 1602025204], "tags": {"addr:housenumber": "10-12", "addr:street": "Saviges Road", "brand": "ALDI", "brand:wikidata": "Q125054", "brand:wikipedia": "en:Aldi", "building": "retail", "check_date:opening_hours": "2023-05-05", "full_name": "ALDI Moe", "name": "ALDI", "opening_hours": "Mo-Fr 08:30-20:00; Sa-Su 08:30-19:00", "shop": "supermarket", "website": "https://store.aldi.com.au/vic/moe/10-12-saviges-rd"}}, {"type": "way", "id": 147247998, "nodes": [1604746410, 1604746402, 1604746394, 1604746404, 1604746392, 1604746410], "tags": {"building": "retail", "name": "Foodworks", "shop": "supermarket"}}, {"type": "way", "id": 264104662, "nodes": [2697733623, 6924567401, 6924567398, 2697733624, 2697733625, 4483203045, 2697733623], "tags": {"addr:city": "Traralgon", "addr:housenumber": "19-23", "addr:postcode": "3844", "addr:street": "Kay Street", "amenity": "nightclub", "area": "yes", "building": "yes", "name": "Kay Street Entertainment", "phone": "+61 3 5176 0463", "website": "http://www.kaystreetentertainment.com"}}, {"type": "way", "id": 329375749, "nodes": [3362495231, 3362493528, 3362495201, 3362493565, 3362495231], "tags": {"brand": "Caltex", "brand:wikidata": "Q5023980", "brand:wikipedia": "en:Caltex Woolworths", "building": "retail", "name": "Woolworths Petrol", "shop": "convenience", "website": "https://www.woolworthspetrol.com.au/"}}, {"type": "way", "id": 329379038, "nodes": [2022265935, 2022265939, 2022265938, 2022265934, 3362544741, 2022265935], "tags": {"brand": "Coles Express", "brand:wikidata": "Q5144653", "building": "yes", "layer": "1", "name": "Coles Express", "operator": "Coles Group", "operator:wikidata": "Q1339055", "shop": "convenience"}}, {"type": "way", "id": 335340638, "nodes": [3424586920, 3424586929, 3424586923, 3424586931, 3424586912, 3424586920], "tags": {"brand": "EG Australia", "brand:wikidata": "Q5023980", "building": "yes", "name": "EG Australia", "shop": "convenience"}}, {"type": "way", "id": 346445190, "nodes": [3529759459, 3529759443, 3529759442, 3529759456, 3529759444, 3529759440, 3529759455, 3529759459], "tags": {"brand": "United", "brand:wikidata": "Q28224393", "brand:wikipedia": "en:United Petroleum", "building": "yes", "name": "United", "shop": "convenience", "website": "https://www.unitedpetroleum.com.au/"}}, {"type": "way", "id": 366722338, "nodes": [3707139727, 3707139728, 3707139729, 3707139730, 3707139731, 3707139732, 3707139727], "tags": {"building": "yes", "name": "Mini Stop", "shop": "convenience"}}, {"type": "way", "id": 368883468, "nodes": [3727210506, 3727210507, 3727210508, 3727210509, 3727210506], "tags": {"addr:housenumber": "141-143", "addr:street": "Argyle Street", "brand": "ALDI", "brand:wikidata": "Q125054", "brand:wikipedia": "en:Aldi", "building": "yes", "check_date:opening_hours": "2023-05-05", "full_name": "ALDI Traralgon", "name": "ALDI", "opening_hours": "Mo-Su 08:30-20:00", "shop": "supermarket", "website": "https://store.aldi.com.au/vic/traralgon/141-143-argyle-street", "wheelchair": "yes"}}, {"type": "way", "id": 549805510, "nodes": [2058953763, 2058953753, 2058953754, 2058953759, 2058953757, 2058953756, 2058953763], "tags": {"building": "yes", "name": "United", "shop": "convenience", "website": "https://www.unitedpetroleum.com.au/"}}, {"type": "way", "id": 705855993, "nodes": [6632476499, 6632476535, 6632476534, 6632476519, 6632476499], "tags": {"brand": "Coles Express", "brand:wikidata": "Q5144653", "brand:wikipedia": "en:Coles Express", "building": "yes", "name": "Coles Express", "shop": "convenience"}}, {"type": "way", "id": 1152801649, "nodes": [10722475235, 10722475236, 10722475237, 10722475238, 10722475246, 10722475239, 10722475235], "tags": {"brand": "United", "brand:wikidata": "Q28224393", "building": "yes", "name": "United", "shop": "convenience"}}, {"type": "way", "id": 1218742838, "nodes": [12143626342, 12169388712, 12169388710, 12143626341, 11292934049, 12143626343, 12143626342], "tags": {"addr:housenumber": "2", "addr:postcode": "3844", "addr:state": "VIC", "addr:street": "Marshalls Road", "addr:suburb": "Traralgon", "building": "yes", "name": "Coles", "not:brand:wikidata": "Q1108172", "opening_hours": "Mo-Su 07:00-23:00", "operator": "coles", "phone": "+61 3 4114 1100", "shop": "supermarket"}}]}