{"version": 0.6, "generator": "Overpass API 0.7.62.1 084b4234", "osm3s": {"timestamp_osm_base": "2024-09-11T11:01:44Z", "copyright": "The data included in this document is from www.openstreetmap.org. The data is made available under ODbL."}, "elements": [{"type": "node", "id": 602410653, "lat": -36.0759635, "lon": 146.9245836, "tags": {"addr:housenumber": "617-621", "addr:street": "Young Street", "brand": "ALDI", "brand:wikidata": "Q41171672", "brand:wikipedia": "en:Aldi", "check_date:opening_hours": "2023-05-05", "full_name": "ALDI Albury", "name": "ALDI", "opening_hours": "Mo-Su 08:30-19:00", "shop": "supermarket", "source": "voice", "website": "https://store.aldi.com.au/nsw/albury/young-street-617-621", "wheelchair": "yes"}}, {"type": "node", "id": 669997413, "lat": -36.080483, "lon": 146.9234968}, {"type": "node", "id": 669997416, "lat": -36.0805364, "lon": 146.923488}, {"type": "node", "id": 669997418, "lat": -36.0805525, "lon": 146.923612}, {"type": "node", "id": 669997419, "lat": -36.0804977, "lon": 146.9236223}, {"type": "node", "id": 1125596451, "lat": -36.0334976, "lon": 146.9503702, "tags": {"name": "Springdale Heights IGA Supermarket", "shop": "supermarket"}}, {"type": "node", "id": 1301764616, "lat": -36.0798443, "lon": 146.9196394, "tags": {"branch": "Albury Central", "brand": "Woolworths", "brand:wikidata": "Q3249145", "brand:wikipedia": "en:Woolworths Supermarkets", "name": "Woolworths", "operator": "Woolworths Group", "operator:wikidata": "Q607272", "shop": "supermarket", "website": "https://www.woolworths.com.au/"}}, {"type": "node", "id": 1364005492, "lat": -36.1283141, "lon": 146.8641891, "tags": {"brand": "Coles", "brand:wikidata": "Q1108172", "name": "Coles", "operator": "Coles Group", "operator:wikidata": "Q1339055", "shop": "supermarket"}}, {"type": "node", "id": 2005294907, "lat": -36.1283897, "lon": 146.8654209}, {"type": "node", "id": 2005294912, "lat": -36.1282479, "lon": 146.8654484}, {"type": "node", "id": 2005294932, "lat": -36.1282337, "lon": 146.8653359}, {"type": "node", "id": 2005294935, "lat": -36.1283755, "lon": 146.8653084}, {"type": "node", "id": 2315647888, "lat": -35.9538323, "lon": 146.8876745, "tags": {"addr:street": "Urana Street", "addr:village": "Jindera", "brand": "IGA", "brand:wikidata": "Q5970945", "name": "IGA plus Liquor", "shop": "supermarket", "source": "survey"}}, {"type": "node", "id": 2315647891, "lat": -35.9537943, "lon": 146.8874109, "tags": {"addr:street": "Urana Street", "addr:village": "Jindera", "name": "Jindera Bakery", "shop": "bakery", "source": "survey"}}, {"type": "node", "id": 2315713089, "lat": -36.0496837, "lon": 146.9328791, "tags": {"addr:housenumber": "330", "addr:state": "NSW", "addr:street": "Urana Road", "addr:suburb": "Lavington", "brand": "Coles", "brand:wikidata": "Q1108172", "brand:wikipedia": "en:Coles Supermarkets", "name": "Coles", "operator": "Coles Group", "operator:wikidata": "Q1339055", "shop": "supermarket", "source": "survey", "website": "https://www.coles.com.au/"}}, {"type": "node", "id": 2315713090, "lat": -36.050106, "lon": 146.9329906, "tags": {"shop": "bakery", "source": "survey"}}, {"type": "node", "id": 2380811154, "lat": -36.2162184, "lon": 147.1792663, "tags": {"addr:housenumber": "25", "addr:street": "Towong Street", "contact:facebook": "https://www.facebook.com/CicconesIgaTallangatta", "name": "Ciccone's IGA Plus Liquor", "opening_hours": "Mo-Fr 07:30-19:00; Sa 08:00-18:00; Su 09:00-19:00", "phone": "+61 2 6071 2201", "shop": "supermarket", "source": "survey", "website": "https://www.iga.com.au/"}}, {"type": "node", "id": 2412916476, "lat": -36.1349773, "lon": 147.0088302, "tags": {"shop": "convenience"}}, {"type": "node", "id": 2412917668, "lat": -36.1236731, "lon": 146.8893646, "tags": {"amenity": "theatre", "name": "The Cube"}}, {"type": "node", "id": 2451199167, "lat": -36.1385873, "lon": 146.8935418}, {"type": "node", "id": 2451199168, "lat": -36.138573, "lon": 146.893636}, {"type": "node", "id": 2451199177, "lat": -36.1386197, "lon": 146.8935484}, {"type": "node", "id": 2451199186, "lat": -36.1386936, "lon": 146.8936639}, {"type": "node", "id": 2456378193, "lat": -36.0793468, "lon": 146.9175102, "tags": {"amenity": "theatre", "name": "Performing and Visual Arts Theatre", "operator": "Albury Entertainment Centre", "website": "https://www.alburycity.nsw.gov.au/leisure-and-culture/albury-entertainment-centre"}}, {"type": "node", "id": 2490537767, "lat": -36.0811578, "lon": 146.9211959, "tags": {"amenity": "cinema", "name": "Regent Cinema"}}, {"type": "node", "id": 2491846370, "lat": -36.121537, "lon": 146.8892165, "tags": {"name": "Henri's", "shop": "bakery"}}, {"type": "node", "id": 2491846390, "lat": -36.1211495, "lon": 146.881416, "tags": {"brand": "Coles", "brand:wikidata": "Q1108172", "brand:wikipedia": "en:Coles Supermarkets", "name": "Coles", "shop": "supermarket", "website": "https://www.coles.com.au/"}}, {"type": "node", "id": 2880884202, "lat": -36.1389798, "lon": 146.892847, "tags": {"brand": "Woolworths", "brand:wikidata": "Q3249145", "brand:wikipedia": "en:Woolworths Supermarkets", "name": "Woolworths", "shop": "supermarket", "website": "https://www.woolworths.com.au/"}}, {"type": "node", "id": 3002375113, "lat": -36.1345771, "lon": 146.8561451, "tags": {"name": "Federation Park Store", "shop": "convenience"}}, {"type": "node", "id": 3003966268, "lat": -36.0814428, "lon": 146.9135818, "tags": {"addr:housenumber": "487", "addr:street": "Kiewa Street", "brand": "Coles", "brand:wikidata": "Q1108172", "brand:wikipedia": "en:Coles Supermarkets", "name": "Coles", "operator": "Coles Group", "operator:wikidata": "Q1339055", "shop": "supermarket", "website": "https://www.coles.com.au/"}}, {"type": "node", "id": 3003994255, "lat": -36.1231548, "lon": 146.8879085, "tags": {"name": "Valentines", "shop": "bakery"}}, {"type": "node", "id": 3003994258, "lat": -36.1247779, "lon": 146.8886586, "tags": {"shop": "convenience"}}, {"type": "node", "id": 3007799020, "lat": -36.119091, "lon": 146.8815944, "tags": {"addr:housenumber": "72", "addr:street": "Elgin Boulevard", "brand": "Aldi", "brand:wikidata": "Q125054", "brand:wikipedia": "en:Aldi", "check_date:opening_hours": "2023-05-05", "full_name": "ALDI Wodonga", "name": "ALDI", "opening_hours": "Mo-Su 08:30-19:00", "shop": "supermarket", "website": "https://store.aldi.com.au/vic/wodonga/elgin-boulevard-72", "wheelchair": "yes"}}, {"type": "node", "id": 3008184213, "lat": -36.0935245, "lon": 146.9040256, "tags": {"amenity": "theatre", "name": "Hothouse Theatre"}}, {"type": "node", "id": 3056780867, "lat": -36.1266975, "lon": 146.9064849, "tags": {"shop": "convenience"}}, {"type": "node", "id": 3197904762, "lat": -36.0366612, "lon": 146.9633474, "tags": {"brand": "Coles Express", "brand:wikidata": "Q5144653", "brand:wikipedia": "en:Coles Express", "name": "Coles Express", "shop": "convenience", "website": "https://www.colesexpress.com.au/"}}, {"type": "node", "id": 3392349277, "lat": -36.1231794, "lon": 146.8549726}, {"type": "node", "id": 3392349278, "lat": -36.1230689, "lon": 146.8551057}, {"type": "node", "id": 3392349279, "lat": -36.1229527, "lon": 146.8549578}, {"type": "node", "id": 3392349284, "lat": -36.1231185, "lon": 146.8547581}, {"type": "node", "id": 3392349286, "lat": -36.1129141, "lon": 146.8594673, "tags": {"shop": "convenience"}}, {"type": "node", "id": 3392349287, "lat": -36.1232053, "lon": 146.8550057}, {"type": "node", "id": 3392349288, "lat": -36.1232607, "lon": 146.854939}, {"type": "node", "id": 3413775518, "lat": -36.1117355, "lon": 146.8686647}, {"type": "node", "id": 3413775521, "lat": -36.1116225, "lon": 146.8686731}, {"type": "node", "id": 3413775526, "lat": -36.1117816, "lon": 146.8687667}, {"type": "node", "id": 3413775532, "lat": -36.1117298, "lon": 146.8689052}, {"type": "node", "id": 3413775537, "lat": -36.1118206, "lon": 146.8688409}, {"type": "node", "id": 3413775539, "lat": -36.1117134, "lon": 146.8686088}, {"type": "node", "id": 3416912379, "lat": -36.1152637, "lon": 146.8703868}, {"type": "node", "id": 3416912752, "lat": -36.1153419, "lon": 146.8703082}, {"type": "node", "id": 3416912768, "lat": -36.1154258, "lon": 146.8706326}, {"type": "node", "id": 3416912778, "lat": -36.1155032, "lon": 146.8705551}, {"type": "node", "id": 3458503428, "lat": -36.1387063, "lon": 146.8935701}, {"type": "node", "id": 3617281991, "lat": -36.0484169, "lon": 146.9339998, "tags": {"addr:state": "NSW", "addr:suburb": "Lavington", "brand": "Woolworths", "brand:wikidata": "Q3249145", "brand:wikipedia": "en:Woolworths Supermarkets", "name": "Woolworths", "operator": "Woolworths Group", "operator:wikidata": "Q607272", "shop": "supermarket", "website": "https://www.woolworths.com.au/"}}, {"type": "node", "id": 3726841769, "lat": -36.1166698, "lon": 146.8611745, "tags": {"shop": "convenience"}}, {"type": "node", "id": 3812054533, "lat": -36.0512888, "lon": 146.9212283, "tags": {"addr:city": "North Albury", "addr:housenumber": "545", "addr:postcode": "2640", "addr:street": "Union Road", "name": "IGA Norris Park", "shop": "supermarket"}}, {"type": "node", "id": 3900938672, "lat": -36.1350459, "lon": 146.9045536}, {"type": "node", "id": 3900938673, "lat": -36.1351304, "lon": 146.9047064}, {"type": "node", "id": 3900938675, "lat": -36.1348661, "lon": 146.9045643}, {"type": "node", "id": 3900938677, "lat": -36.1350026, "lon": 146.9048137}, {"type": "node", "id": 3900938680, "lat": -36.1349615, "lon": 146.9044007}, {"type": "node", "id": 3900938683, "lat": -36.1349203, "lon": 146.9044516}, {"type": "node", "id": 4010915806, "lat": -36.0805486, "lon": 146.923582}, {"type": "node", "id": 4018741414, "lat": -36.2166792, "lon": 147.1784418, "tags": {"addr:housenumber": "39", "addr:street": "Towong Street", "name": "Tallangatta Bakery", "opening_hours": "Mo-Fr 06:00-15:00; Sa 06:00-14:00; Su 08:00-14:30", "phone": "+61 2 6071 2222", "shop": "bakery", "website": "https://www.facebook.com/tallangattabakery/"}}, {"type": "node", "id": 4450127652, "lat": -36.1154517, "lon": 146.8704748}, {"type": "node", "id": 4545725475, "lat": -35.9554553, "lon": 146.8895112}, {"type": "node", "id": 4545725476, "lat": -35.9555104, "lon": 146.8893496}, {"type": "node", "id": 4545725477, "lat": -35.9556006, "lon": 146.8894254}, {"type": "node", "id": 4545725478, "lat": -35.9555604, "lon": 146.8895314}, {"type": "node", "id": 4562887399, "lat": -36.080987, "lon": 146.9219186}, {"type": "node", "id": 4562887400, "lat": -36.0813101, "lon": 146.9218579}, {"type": "node", "id": 4562887401, "lat": -36.0812001, "lon": 146.9209311}, {"type": "node", "id": 4562887402, "lat": -36.0807961, "lon": 146.921003}, {"type": "node", "id": 4562887403, "lat": -36.0808445, "lon": 146.9214196}, {"type": "node", "id": 4562887404, "lat": -36.0809273, "lon": 146.9214049}, {"type": "node", "id": 4562887407, "lat": -36.0811924, "lon": 146.9218861}, {"type": "node", "id": 4565841011, "lat": -36.1797832, "lon": 146.9470278}, {"type": "node", "id": 4565841012, "lat": -36.1798859, "lon": 146.9470288}, {"type": "node", "id": 4565841013, "lat": -36.1798846, "lon": 146.9472366}, {"type": "node", "id": 4565841014, "lat": -36.1797889, "lon": 146.9472357}, {"type": "node", "id": 4565841015, "lat": -36.1797886, "lon": 146.9471073}, {"type": "node", "id": 4565841016, "lat": -36.1797571, "lon": 146.9471063}, {"type": "node", "id": 4565841017, "lat": -36.1797579, "lon": 146.9470653}, {"type": "node", "id": 4592469883, "lat": -36.1145239, "lon": 146.8918422}, {"type": "node", "id": 4774104003, "lat": -36.0760137, "lon": 146.939437}, {"type": "node", "id": 4774104004, "lat": -36.0765586, "lon": 146.9393407}, {"type": "node", "id": 4774104005, "lat": -36.0765985, "lon": 146.9396677}, {"type": "node", "id": 4774104006, "lat": -36.0763358, "lon": 146.9397168}, {"type": "node", "id": 4774104007, "lat": -36.0763286, "lon": 146.9396578}, {"type": "node", "id": 4774104008, "lat": -36.0760937, "lon": 146.9397017}, {"type": "node", "id": 4774104009, "lat": -36.076067, "lon": 146.9394835}, {"type": "node", "id": 4774104010, "lat": -36.0760197, "lon": 146.9394824}, {"type": "node", "id": 4774104013, "lat": -36.0764887, "lon": 146.9396853}, {"type": "node", "id": 4774104016, "lat": -36.0764079, "lon": 146.9393692}, {"type": "node", "id": 4819223787, "lat": -36.0484005, "lon": 146.9375491}, {"type": "node", "id": 4819223788, "lat": -36.0483462, "lon": 146.9376303}, {"type": "node", "id": 4819223794, "lat": -36.0483763, "lon": 146.9375244}, {"type": "node", "id": 4819223796, "lat": -36.0483199, "lon": 146.9376033}, {"type": "node", "id": 4827954921, "lat": -36.0466981, "lon": 146.9393337}, {"type": "node", "id": 4827954922, "lat": -36.0468624, "lon": 146.9390979}, {"type": "node", "id": 4827954923, "lat": -36.0472569, "lon": 146.9395004}, {"type": "node", "id": 4827954924, "lat": -36.0471007, "lon": 146.9397484}, {"type": "node", "id": 4833634842, "lat": -36.0470018, "lon": 146.9396466}, {"type": "node", "id": 4875386327, "lat": -36.1240854, "lon": 147.0984234}, {"type": "node", "id": 4875386328, "lat": -36.1242462, "lon": 147.0983881}, {"type": "node", "id": 4875386329, "lat": -36.1242765, "lon": 147.0986}, {"type": "node", "id": 4875386330, "lat": -36.1241979, "lon": 147.0986173}, {"type": "node", "id": 4875386331, "lat": -36.124182, "lon": 147.0985063}, {"type": "node", "id": 4875386332, "lat": -36.1240998, "lon": 147.0985243}, {"type": "node", "id": 4879799145, "lat": -36.0995376, "lon": 147.0610598, "tags": {"name": "Bellbridge Store", "shop": "convenience"}}, {"type": "node", "id": 5230328952, "lat": -36.1202037, "lon": 146.8888404, "tags": {"addr:housenumber": "1-13", "addr:street": "South Street", "brand": "Coles", "brand:wikidata": "Q1108172", "brand:wikipedia": "en:Coles Supermarkets", "full_name": "Coles Wodonga", "name": "Coles", "shop": "supermarket", "website": "https://www.coles.com.au/"}}, {"type": "node", "id": 5230338598, "lat": -36.1210509, "lon": 146.8867459, "tags": {"brand": "Woolworths", "brand:wikidata": "Q3249145", "brand:wikipedia": "en:Woolworths Supermarkets", "name": "Woolworths", "operator": "Woolworths Group", "operator:wikidata": "Q607272", "shop": "supermarket", "website": "https://www.woolworths.com.au/"}}, {"type": "node", "id": 5421433623, "lat": -36.1382936, "lon": 146.8953705}, {"type": "node", "id": 5421433624, "lat": -36.1383322, "lon": 146.8955315}, {"type": "node", "id": 5421433625, "lat": -36.1383907, "lon": 146.8955446}, {"type": "node", "id": 5421433626, "lat": -36.1384136, "lon": 146.895388}, {"type": "node", "id": 5421433627, "lat": -36.1385219, "lon": 146.8954123}, {"type": "node", "id": 5421433628, "lat": -36.138575, "lon": 146.8950492}, {"type": "node", "id": 5421433629, "lat": -36.1386083, "lon": 146.8950566}, {"type": "node", "id": 5421433630, "lat": -36.1386466, "lon": 146.8947947}, {"type": "node", "id": 5421433631, "lat": -36.1383863, "lon": 146.8947364}, {"type": "node", "id": 6295819343, "lat": -36.0357679, "lon": 146.9710048, "tags": {"brand": "BP Shop", "brand:wikidata": "Q152057", "brand:wikipedia": "en:BP", "name": "BP Shop", "shop": "convenience"}}, {"type": "node", "id": 6324893471, "lat": -36.1041128, "lon": 146.8244406}, {"type": "node", "id": 6324893472, "lat": -36.1043452, "lon": 146.8242381}, {"type": "node", "id": 6324893473, "lat": -36.1044445, "lon": 146.8244127}, {"type": "node", "id": 6324893474, "lat": -36.1042058, "lon": 146.8246042}, {"type": "node", "id": 6392525564, "lat": -36.1797771, "lon": 146.9470366}, {"type": "node", "id": 6392525565, "lat": -36.1798858, "lon": 146.9470371}, {"type": "node", "id": 6631114808, "lat": -36.0894617, "lon": 146.9168202, "tags": {"addr:housenumber": "499", "addr:postcode": "2640", "addr:street": "Ebden Street", "name": "Nord Bakery", "opening_hours": "Tu-Fr 07:00-16:00; Sa 07:00-14:00; Su-Mo closed", "phone": "+61 413 906 030", "shop": "bakery", "website": "https://www.facebook.com/nordbakery"}}, {"type": "node", "id": 6646188128, "lat": -36.0848762, "lon": 146.9099889, "tags": {"addr:housenumber": "406", "addr:postcode": "2640", "addr:street": "Dean Street", "addr:unit": "2", "name": "Albury Riverside Bakery", "phone": "+61 2 6066 9397", "shop": "bakery", "website": "https://www.facebook.com/alburyriversidebakery/"}}, {"type": "node", "id": 6816728582, "lat": -35.9543628, "lon": 146.8891953}, {"type": "node", "id": 6816728583, "lat": -35.9543945, "lon": 146.8891069}, {"type": "node", "id": 6816728584, "lat": -35.9545829, "lon": 146.88921}, {"type": "node", "id": 6816748685, "lat": -35.9545511, "lon": 146.8892985}, {"type": "node", "id": 7111380773, "lat": -36.0798114, "lon": 146.9199904, "tags": {"brand": "Beechworth Bakery", "brand:wikidata": "Q28183324", "brand:wikipedia": "en:Beechworth Bakery", "name": "Beechworth Bakery", "shop": "bakery"}}, {"type": "node", "id": 7111380780, "lat": -36.0798005, "lon": 146.9200756, "tags": {"brand": "Bakers Delight", "brand:wikidata": "Q4849261", "brand:wikipedia": "en:Bakers Delight", "name": "Bakers Delight", "shop": "bakery"}}, {"type": "node", "id": 8280142845, "lat": -36.1797693, "lon": 146.9470472}, {"type": "node", "id": 8280177555, "lat": -36.1798857, "lon": 146.9470488}, {"type": "node", "id": 8410273812, "lat": -36.0762182, "lon": 146.9257485, "tags": {"addr:housenumber": "614", "addr:postcode": "2640", "addr:state": "NSW", "addr:street": "Young Street", "addr:suburb": "Albury", "name": "Harris Farm Markets", "payment:card": "yes", "payment:cash": "yes", "shop": "supermarket"}}, {"type": "node", "id": 9454388115, "lat": -36.0492634, "lon": 146.9369077, "tags": {"name": "The Baker At Northpoint", "opening_hours": "Mo-Fr 06:00-16:00; Sa 06:00-14:00", "phone": "+61 2 6025 6491", "shop": "bakery", "website": "https://www.facebook.com/The-Baker-at-Northpoint-333023016810467/"}}, {"type": "node", "id": 9571835617, "lat": -36.0814514, "lon": 146.8984052, "tags": {"name": "Frankie", "shop": "bakery"}}, {"type": "node", "id": 9969677440, "lat": -36.1144702, "lon": 146.8917284}, {"type": "node", "id": 9969677441, "lat": -36.1144468, "lon": 146.8917453}, {"type": "node", "id": 9969677442, "lat": -36.1144415, "lon": 146.891734}, {"type": "node", "id": 9969677443, "lat": -36.1144092, "lon": 146.8917573}, {"type": "node", "id": 9969677444, "lat": -36.1144684, "lon": 146.8918824}, {"type": "node", "id": 10000789457, "lat": -35.8363443, "lon": 146.9930094, "tags": {"name": "Gerogery Supply Stores", "shop": "convenience"}}, {"type": "node", "id": 10177506611, "lat": -36.1152718, "lon": 146.8703991}, {"type": "node", "id": 10177506612, "lat": -36.1152404, "lon": 146.8704306}, {"type": "node", "id": 10177506613, "lat": -36.1152669, "lon": 146.8704711}, {"type": "node", "id": 10177506614, "lat": -36.1152975, "lon": 146.8704404}, {"type": "node", "id": 10177506615, "lat": -36.115363, "lon": 146.8705404}, {"type": "node", "id": 10177506616, "lat": -36.1153327, "lon": 146.8705709}, {"type": "node", "id": 10177516217, "lat": -36.1153606, "lon": 146.8706135}, {"type": "node", "id": 10177516218, "lat": -36.1153924, "lon": 146.8705816}, {"type": "node", "id": 10513654984, "lat": -35.9544481, "lon": 146.8891362}, {"type": "node", "id": 10513654985, "lat": -35.9545157, "lon": 146.8891732}, {"type": "node", "id": 10597791864, "lat": -36.1129832, "lon": 146.8579241, "tags": {"brand": "OTR", "brand:wikidata": "Q116394019", "name": "OTR", "shop": "convenience"}}, {"type": "node", "id": 11083615634, "lat": -36.0434649, "lon": 146.9909932, "tags": {"addr:housenumber": "10", "addr:postcode": "2640", "addr:state": "NSW", "addr:street": "Shuter Avenue", "addr:suburb": "Thurgoona", "branch": "Thurgoona", "brand": "Woolworths", "brand:wikidata": "Q3249145", "name": "Woolworths", "opening_hours": "Mo-Su 9:00-20:00", "operator": "Woolworths Group", "operator:wikidata": "Q607272", "payment:american_express": "yes", "payment:apple_pay": "yes", "payment:cash": "yes", "payment:coins": "yes", "payment:contactless": "yes", "payment:credit_cards": "yes", "payment:debit_cards": "yes", "payment:diners_club": "yes", "payment:discover_card": "yes", "payment:google_pay": "yes", "payment:mastercard": "yes", "payment:mastercard_contactless": "yes", "payment:notes": "yes", "payment:visa": "yes", "payment:visa_debit": "yes", "phone": "+61 2 6022 2616", "shop": "supermarket"}}, {"type": "node", "id": 11378654604, "lat": -36.1042319, "lon": 146.8245815}, {"type": "node", "id": 11378654611, "lat": -36.1044229, "lon": 146.824415}, {"type": "node", "id": 11378682838, "lat": -36.1109409, "lon": 146.8641955}, {"type": "node", "id": 11378682839, "lat": -36.1111842, "lon": 146.8646337}, {"type": "node", "id": 11378682840, "lat": -36.1112922, "lon": 146.8645418}, {"type": "node", "id": 11378682841, "lat": -36.111049, "lon": 146.8641036}, {"type": "node", "id": 11453933412, "lat": -36.1405825, "lon": 146.9145777, "tags": {"amenity": "cinema", "name": "Bandiana Area Cinema"}}, {"type": "node", "id": 11454145793, "lat": -36.0612124, "lon": 146.9316632, "tags": {"fixme": "name? something Bakehouse", "shop": "bakery"}}, {"type": "node", "id": 11454197300, "lat": -36.0399952, "lon": 146.9271218, "tags": {"name": "Fast and Easy", "shop": "convenience"}}, {"type": "way", "id": 52834119, "nodes": [669997413, 669997416, 4010915806, 669997418, 669997419, 669997413], "tags": {"brand": "EG Australia", "brand:wikidata": "Q5023980", "building": "yes", "name": "EG Australia", "shop": "convenience"}}, {"type": "way", "id": 189916733, "nodes": [2005294932, 2005294912, 2005294907, 2005294935, 2005294932], "tags": {"brand": "BP Shop", "brand:wikidata": "Q152057", "brand:wikipedia": "en:BP", "building": "yes", "building:levels": "1", "name": "BP Shop", "shop": "convenience"}}, {"type": "way", "id": 332115102, "nodes": [3392349279, 3392349284, 3392349288, 3392349287, 3392349277, 3392349278, 3392349279], "tags": {"building": "yes", "shop": "convenience"}}, {"type": "way", "id": 334266479, "nodes": [3413775521, 3413775532, 3413775537, 3413775526, 3413775518, 3413775539, 3413775521], "tags": {"brand": "United", "brand:wikidata": "Q28224393", "building": "yes", "name": "United", "shop": "convenience"}}, {"type": "way", "id": 334630757, "nodes": [3416912778, 4450127652, 3416912752, 3416912379, 10177506611, 10177506612, 10177506613, 10177506614, 10177506615, 10177506616, 10177516217, 10177516218, 3416912768, 3416912778], "tags": {"building": "retail", "building:levels": "1", "name": "Ampol Foodary", "shop": "convenience"}}, {"type": "way", "id": 338711783, "nodes": [2451199177, 3458503428, 2451199186, 2451199168, 2451199167, 2451199177], "tags": {"building": "commercial", "shop": "convenience"}}, {"type": "way", "id": 386743375, "nodes": [3900938672, 3900938680, 3900938683, 3900938675, 3900938677, 3900938673, 3900938672], "tags": {"building": "retail", "shop": "convenience"}}, {"type": "way", "id": 458589660, "nodes": [4545725475, 4545725476, 4545725477, 4545725478, 4545725475], "tags": {"amenity": "theatre", "building": "yes", "name": "Sound Shell"}}, {"type": "way", "id": 460658763, "nodes": [4562887399, 4562887407, 4562887400, 4562887401, 4562887402, 4562887403, 4562887404, 4562887399], "tags": {"amenity": "cinema", "building": "yes"}}, {"type": "way", "id": 461018991, "nodes": [4565841011, 4565841012, 6392525565, 8280177555, 4565841013, 4565841014, 4565841015, 4565841016, 4565841017, 8280142845, 6392525564, 4565841011], "tags": {"addr:housenumber": "4", "addr:street": "Sage Court", "building": "yes", "name": "Baranduda General Store", "opening_hours": "Mo-Sa 06:30-20:00; Su 09:00-16:00", "phone": "+61 2 6020 8003", "shop": "convenience"}}, {"type": "way", "id": 484656060, "nodes": [4774104003, 4774104016, 4774104004, 4774104005, 4774104013, 4774104006, 4774104007, 4774104008, 4774104009, 4774104010, 4774104003], "tags": {"addr:housenumber": "184", "addr:street": "Borella Road", "building": "yes", "contact:facebook": "https://www.facebook.com/eastalbury/", "name": "East Albury IGA", "opening_hours": "Mo-Su 07:00-20:00", "phone": "+61 2 6023 6211", "shop": "supermarket", "website": "http://eastalburyiga.com.au/index.html"}}, {"type": "way", "id": 489706486, "nodes": [4819223796, 4819223794, 4819223787, 4819223788, 4819223796], "tags": {"brand": "EG Australia", "brand:wikidata": "Q5023980", "building": "yes", "name": "EG Australia", "shop": "convenience"}}, {"type": "way", "id": 490609685, "nodes": [4827954921, 4827954922, 4827954923, 4827954924, 4833634842, 4827954921], "tags": {"addr:housenumber": "385-387", "addr:street": "Wagga Road", "brand": "Aldi", "brand:wikidata": "Q125054", "brand:wikipedia": "en:Aldi", "building": "yes", "check_date:opening_hours": "2023-05-05", "full_name": "ALDI Lavington", "name": "ALDI", "opening_hours": "Mo-Su 08:30-20:00", "shop": "supermarket", "website": "https://store.aldi.com.au/nsw/lavington/385-387-wagga-road", "wheelchair": "yes"}}, {"type": "way", "id": 495799348, "nodes": [4875386327, 4875386328, 4875386329, 4875386330, 4875386331, 4875386332, 4875386327], "tags": {"addr:housenumber": "2", "addr:postcode": "3691", "addr:state": "VIC", "addr:street": "Bridge Street", "addr:suburb": "Bethanga", "building": "yes", "name": "Bethanga General Store", "shop": "convenience"}}, {"type": "way", "id": 562345224, "nodes": [5421433623, 5421433624, 5421433625, 5421433626, 5421433627, 5421433628, 5421433629, 5421433630, 5421433631, 5421433623], "tags": {"brand": "ALDI", "brand:wikidata": "Q125054", "brand:wikipedia": "en:Aldi", "building": "yes", "check_date:opening_hours": "2023-05-05", "full_name": "ALDI Wodonga", "name": "ALDI", "opening_hours": "Mo-Fr 08:30-20:00; Sa-Su 08:30-19:00", "shop": "supermarket", "website": "https://store.aldi.com.au/vic/wodonga/victoria-cross-parade-wark-street-cnr", "wheelchair": "yes"}}, {"type": "way", "id": 675371816, "nodes": [6324893471, 6324893472, 6324893473, 11378654611, 11378654604, 6324893474, 6324893471], "tags": {"brand": "United", "brand:wikidata": "Q28224393", "building": "yes", "name": "United", "shop": "convenience"}}, {"type": "way", "id": 727384684, "nodes": [6816728582, 6816728583, 10513654984, 10513654985, 6816728584, 6816748685, 6816728582], "tags": {"building": "yes", "shop": "convenience"}}, {"type": "way", "id": 1088123463, "nodes": [4592469883, 9969677440, 9969677441, 9969677442, 9969677443, 9969677444, 4592469883], "tags": {"brand": "EG Australia", "brand:wikidata": "Q5023980", "building": "yes", "name": "EG Australia", "shop": "convenience"}}, {"type": "way", "id": 1227052676, "nodes": [11378682838, 11378682839, 11378682840, 11378682841, 11378682838], "tags": {"brand": "7-Eleven", "brand:wikidata": "Q259340", "building": "yes", "name": "7-Eleven", "shop": "convenience"}}]}